      2.10          N: GNSS NAV DATA                        RINEX VERSION / TYPE
fic2rin                                 11/14/2020 00:18:16 PGM / RUN BY / DATE
                                                            END OF HEADER
 6 20 11 14  0  0  0.0-8.945353329182e-07-1.591615728103e-12 0.000000000000e+00
    5.200000000000e+01-1.856250000000e+01 3.709083069626e-09-2.309242116883e+00
   -9.518116712570e-07 1.982034998946e-03 1.424364745617e-05 5.153656791687e+03
    5.184000000000e+05 9.126961231232e-08 5.852587957494e-02 8.195638656616e-08
    9.820945270134e-01 1.166875000000e+02-1.163696332189e+00-7.550314500905e-09
    4.032310819074e-10 1.000000000000e+00 2.131000000000e+03 0.000000000000e+00
    2.400000000000e+00 0.000000000000e+00 4.190951585770e-09 5.200000000000e+01
    5.112000000000e+05 4.000000000000e+00
 4 20 11 14  0  0  0.0-1.550624147058e-04-3.637978807092e-12 0.000000000000e+00
    1.790000000000e+02-4.646875000000e+01 4.667694428209e-09-1.067199581466e+00
   -2.548098564148e-06 8.992400253192e-04 9.309500455856e-06 5.153610286713e+03
    5.184000000000e+05 3.166496753693e-08 2.185857329777e+00 5.029141902924e-08
    9.599693847038e-01 1.971875000000e+02-3.031423356391e+00-8.079622262984e-09
   -5.957391006391e-10 1.000000000000e+00 2.131000000000e+03 0.000000000000e+00
    2.400000000000e+00 0.000000000000e+00-4.190951585770e-09 4.350000000000e+02
    5.112000000000e+05 4.000000000000e+00
10 20 11 14  0  0  0.0-5.039833486080e-04-9.208633855451e-12 0.000000000000e+00
    2.700000000000e+01 3.506250000000e+01 4.847701926243e-09 1.560670515483e+00
    1.860782504082e-06 6.130196969025e-03 4.995614290237e-06 5.153662311554e+03
    5.184000000000e+05-6.891787052155e-08 1.102692651209e+00 1.471489667892e-07
    9.668719135018e-01 2.860000000000e+02-2.658586867900e+00-8.388206545329e-09
    3.753727786401e-10 1.000000000000e+00 2.131000000000e+03 0.000000000000e+00
    2.400000000000e+00 0.000000000000e+00 2.328306436539e-09 2.700000000000e+01
    5.112000000000e+05 4.000000000000e+00
 9 20 11 14  0  0  0.0-2.891961485147e-04-4.774847184308e-12 0.000000000000e+00
    6.200000000000e+01-5.278125000000e+01 4.893060958486e-09-1.140568279076e-01
   -2.991408109665e-06 1.975439605303e-03 9.015202522278e-06 5.153617033005e+03
    5.184000000000e+05 3.725290298462e-08 2.136582098569e+00 2.607703208923e-08
    9.527091782871e-01 2.012500000000e+02 1.757919458367e+00-8.253200921803e-09
   -6.271689812483e-10 1.000000000000e+00 2.131000000000e+03 0.000000000000e+00
    2.400000000000e+00 0.000000000000e+00 1.396983861923e-09 6.200000000000e+01
    5.112000000000e+05 4.000000000000e+00
19 20 11 14  0  0  0.0-7.867394015193e-05 5.002220859751e-12 0.000000000000e+00
    3.300000000000e+01-1.534687500000e+02 4.097313526697e-09 1.921124767335e+00
   -8.076429367065e-06 9.040372911841e-03 7.687136530876e-06 5.153603912354e+03
    5.184000000000e+05 2.104789018631e-07-8.842546521841e-01-7.823109626770e-08
    9.815961912843e-01 2.395625000000e+02 1.746641996981e+00-7.944616639458e-09
   -6.403838174136e-10 1.000000000000e+00 2.131000000000e+03 0.000000000000e+00
    2.400000000000e+00 0.000000000000e+00-1.536682248116e-08 3.300000000000e+01
    5.112000000000e+05 4.000000000000e+00
12 20 11 14  0  0  0.0 4.071649163961e-05-5.115907697473e-12 0.000000000000e+00
    2.700000000000e+01 6.690625000000e+01 4.628407077447e-09 2.201679055056e+00
    3.185123205185e-06 7.987836725079e-03 1.443549990654e-06 5.153600429535e+03
    5.184000000000e+05-5.587935447693e-08-1.965315632610e+00-1.117587089539e-07
    9.759426609806e-01 3.565937500000e+02 1.165055798553e+00-8.380349075177e-09
    1.717928701483e-10 1.000000000000e+00 2.131000000000e+03 0.000000000000e+00
    2.400000000000e+00 0.000000000000e+00-1.257285475731e-08 2.700000000000e+01
    5.112000000000e+05 4.000000000000e+00
17 20 11 14  0  0  0.0 3.535305149853e-04 5.115907697473e-12 0.000000000000e+00
    2.900000000000e+01-1.345312500000e+02 4.196960534538e-09-6.924694347600e-01
   -6.975606083870e-06 1.356999215204e-02 7.681548595428e-06 5.153497138977e+03
    5.184000000000e+05-1.005828380585e-07-9.296441374441e-01 9.872019290924e-08
    9.832117253663e-01 2.462812500000e+02-1.616390101250e+00-8.326061099579e-09
   -5.428797559780e-10 1.000000000000e+00 2.131000000000e+03 0.000000000000e+00
    2.400000000000e+00 0.000000000000e+00-1.117587089539e-08 2.900000000000e+01
    5.112000000000e+05 4.000000000000e+00
30 20 11 14  0  0  0.0-3.350921906531e-04-6.593836587854e-12 0.000000000000e+00
    9.600000000000e+01 1.205000000000e+02 4.799842789861e-09 2.900345573183e+00
    6.258487701416e-06 4.700512276031e-03 1.317821443081e-05 5.153795995712e+03
    5.184000000000e+05 1.117587089539e-08-3.053534208916e+00-4.284083843231e-08
    9.381798460421e-01 1.142500000000e+02-2.832829520732e+00-8.069264688692e-09
    2.032227507576e-10 1.000000000000e+00 2.131000000000e+03 0.000000000000e+00
    2.400000000000e+00 0.000000000000e+00 3.725290298462e-09 9.600000000000e+01
    5.112000000000e+05 4.000000000000e+00
15 20 11 14  0  0  0.0-1.901960931718e-04 2.614797267597e-12 0.000000000000e+00
    7.400000000000e+01-6.475000000000e+01 5.559517290496e-09-1.488800963656e+00
   -3.246590495110e-06 1.303683232982e-02 6.569549441338e-06 5.153768360138e+03
    5.184000000000e+05 3.166496753693e-07 2.042625573428e+00-2.235174179077e-08
    9.282237917439e-01 2.275000000000e+02 9.464527823688e-01-8.546784579312e-09
   -5.218074496605e-10 1.000000000000e+00 2.131000000000e+03 0.000000000000e+00
    2.400000000000e+00 0.000000000000e+00-1.071020960808e-08 7.400000000000e+01
    5.112000000000e+05 4.000000000000e+00
22 20 11 14  0  0  0.0-7.303277961910e-04 5.343281372916e-12 0.000000000000e+00
    9.000000000000e+01 4.443750000000e+01 5.607733584613e-09-1.557214270579e+00
    2.449378371239e-06 6.719862576574e-03 4.926696419716e-06 5.153671775818e+03
    5.184000000000e+05-9.499490261078e-08 1.013076498680e+00 7.450580596924e-08
    9.322888402466e-01 2.714062500000e+02-1.073819673448e+00-8.759650588893e-09
    5.250218692682e-10 1.000000000000e+00 2.131000000000e+03 0.000000000000e+00
    2.400000000000e+00 0.000000000000e+00-1.816079020500e-08 9.000000000000e+01
    5.112000000000e+05 4.000000000000e+00
32 20 11 14  0  0  0.0 2.053566277027e-07 3.296918293927e-12 0.000000000000e+00
    5.200000000000e+01-5.775000000000e+01 4.841987402496e-09 1.711648838530e-01
   -3.030523657799e-06 4.232413717546e-03 8.746981620789e-06 5.153602903366e+03
    5.184000000000e+05-4.284083843231e-08 2.145749780463e+00 5.960464477539e-08
    9.567703588344e-01 2.110937500000e+02-2.462107020549e+00-8.266772915703e-09
   -5.843100531448e-10 1.000000000000e+00 2.131000000000e+03 0.000000000000e+00
    2.400000000000e+00 0.000000000000e+00 4.656612873077e-10 5.200000000000e+01
    5.112000000000e+05 4.000000000000e+00
24 20 11 14  0  0  0.0 6.472691893578e-06-4.547473508865e-13 0.000000000000e+00
    1.250000000000e+02 8.431250000000e+01 4.745554814263e-09-2.410521193620e+00
    4.149973392487e-06 1.049401774071e-02 1.375190913677e-05 5.153639432907e+03
    5.184000000000e+05 1.080334186554e-07 3.134607247557e+00-1.601874828339e-07
    9.362417121910e-01 9.937500000000e+01 6.952225427180e-01-7.994261564511e-09
    1.457203555520e-10 1.000000000000e+00 2.131000000000e+03 0.000000000000e+00
    3.400000000000e+00 0.000000000000e+00 2.793967723846e-09 1.250000000000e+02
    5.112000000000e+05 4.000000000000e+00
21 20 11 14  0  0  0.0 6.794743239880e-05 3.865352482535e-12 0.000000000000e+00
    1.090000000000e+02-1.821875000000e+01 4.356610041724e-09-1.892843735968e-01
   -9.648501873016e-07 2.390482847113e-02 1.335330307484e-05 5.154991666794e+03
    5.184000000000e+05-5.308538675308e-07-1.165135837727e-02-1.750886440277e-07
    9.555018099028e-01 1.294375000000e+02-1.264897578758e+00-8.186055267774e-09
    3.550147877909e-10 1.000000000000e+00 2.131000000000e+03 0.000000000000e+00
    2.400000000000e+00 0.000000000000e+00-1.024454832077e-08 1.090000000000e+02
    5.112000000000e+05 4.000000000000e+00
20 20 11 14  0  0  0.0 5.260310135782e-04-1.136868377216e-13 0.000000000000e+00
    7.800000000000e+01 5.403125000000e+01 5.400939256513e-09 3.018133007503e+00
    2.924352884293e-06 5.831975489855e-03 5.390495061874e-06 5.153658630371e+03
    5.184000000000e+05-1.471489667892e-07 9.661722758563e-01 7.078051567078e-08
    9.356371627577e-01 2.593125000000e+02 2.756883190725e+00-8.537141320489e-09
    5.989535202468e-10 1.000000000000e+00 2.131000000000e+03 0.000000000000e+00
    2.400000000000e+00 0.000000000000e+00-8.381903171539e-09 7.800000000000e+01
    5.112000000000e+05 4.000000000000e+00
26 20 11 14  0  0  0.0 3.113113343716e-04 6.025402399246e-12 0.000000000000e+00
    5.700000000000e+01 8.490625000000e+01 5.377366846056e-09 1.362180163723e+00
    4.645437002182e-06 5.270595545880e-03 1.596286892891e-06 5.153710075378e+03
    5.184000000000e+05 1.154839992523e-07-2.074901629261e+00 9.126961231232e-08
    9.443601234069e-01 3.374687500000e+02 2.051984777631e-01-8.900013578432e-09
    1.528635102359e-10 1.000000000000e+00 2.131000000000e+03 0.000000000000e+00
    2.400000000000e+00 0.000000000000e+00 6.984919309616e-09 5.700000000000e+01
    5.112000000000e+05 4.000000000000e+00
23 20 11 14  0  0  0.0 9.991135448217e-05 4.661160346586e-12 0.000000000000e+00
    7.900000000000e+01 3.934375000000e+01 4.910204529728e-09-2.736406929715e+00
    2.123415470123e-06 1.103550079279e-03 4.755333065987e-06 5.153621763229e+03
    5.184000000000e+05-6.332993507385e-08 1.080242388523e+00 4.470348358154e-08
    9.618262198084e-01 2.849062500000e+02 2.108386230978e+00-8.352490771910e-09
    5.032352474823e-10 1.000000000000e+00 2.131000000000e+03 0.000000000000e+00
    2.400000000000e+00 0.000000000000e+00-8.381903171539e-09 5.910000000000e+02
    5.112000000000e+05 4.000000000000e+00
